STARLINK-11516 [DTC]    
1 62522U 25004M   26192.63858059  .00147432  00000+0  11260-2 0  9994
2 62522  43.0027  43.4975 0002918 294.7907  65.2657 15.70967618 86707
STARLINK-11527 [DTC]    
1 62523U 25004N   26192.94587003  .00137294  00000+0  10510-2 0  9999
2 62523  43.0003  41.4981 0003693 252.3305 107.7159 15.70944982 86753
STARLINK-32748          
1 62524U 25004P   26193.13950234  .00013653  00000+0  50493-3 0  9999
2 62524  42.9965 236.8696 0000961 261.9613  98.1130 15.27566437 85494
STARLINK-32777          
1 62525U 25004Q   26193.17933341  .00006193  00000+0  23438-3 0  9994
2 62525  43.0024 237.1720 0001629 270.8777  89.1888 15.27578293 85490
STARLINK-32741          
1 62526U 25004R   26193.16825646  .00007954  00000+0  29821-3 0  9990
2 62526  43.0025 233.6247 0001525 272.6123  87.4554 15.27585435 85539
STARLINK-32754          
1 62527U 25004S   26193.15489846  .00014834  00000+0  54678-3 0  9991
2 62527  42.9939 236.9784 0001033 211.3541 148.7249 15.27623452 84546
STARLINK-32786          
1 62528U 25004T   26193.18689282  .00010478  00000+0  38991-3 0  9991
2 62528  43.0003 236.3671 0001660 253.9654 106.1015 15.27565587 84557
STARLINK-32789          
1 62529U 25004U   26193.16133913  .00011365  00000+0  42179-3 0  9994
2 62529  42.9971 237.0257 0001425 174.4333 185.6534 15.27587030 85497
STARLINK-32791          
1 62530U 25004V   26193.14720054  .00005575  00000+0  21207-3 0  9997
2 62530  42.9971 236.9211 0001046 260.0403 100.0330 15.27559444 85499
STARLINK-32785          
1 62531U 25004W   26193.16905150  .00006056  00000+0  22940-3 0  9992
2 62531  42.9990 237.0919 0000989 196.3364 163.7456 15.27581723 85490
STARLINK-11538 [DTC]    
1 62554U 25006A   26192.97703035  .00094350  00000+0  72975-3 0  9992
2 62554  43.0000 110.3682 0002546 202.4599 157.6157 15.70861637 86156
STARLINK-11534 [DTC]    
1 62555U 25006B   26192.98233747  .00069085  00000+0  53718-3 0  9993
2 62555  42.9992 110.4052 0002783 194.4009 165.6779 15.70847875 86153
STARLINK-11515 [DTC]    
1 62556U 25006C   26192.13465096  .00104513  00000+0  80758-3 0  9995
2 62556  43.0009 116.1186 0001564 263.0566  97.0124 15.70845941 86012
STARLINK-11478 [DTC]    
1 62557U 25006D   26193.13074563  .00146584  00000+0  11239-2 0  9993
2 62557  42.9997 109.8171 0003021 301.0818  58.9753 15.70878777 86177
STARLINK-11358 [DTC]    
1 62558U 25006E   26193.12543165  .00109678  00000+0  84486-3 0  9990
2 62558  43.0040 109.7726 0003538 275.3742  84.6722 15.70895442 86176
STARLINK-11517 [DTC]    
1 62559U 25006F   26193.13604754  .00188864  00000+0  14337-2 0  9995
2 62559  43.0022 109.8573 0004505 250.9960 109.0419 15.70972982 86174
STARLINK-11519 [DTC]    
1 62560U 25006G   26193.15819765  .00115809  00000+0  89025-3 0  9995
2 62560  43.0009 110.0378 0003258 256.8694 103.1810 15.70922640 86177
STARLINK-11451 [DTC]    
1 62561U 25006H   26192.98764844  .00142748  00000+0  11008-2 0  9990
2 62561  43.0008 110.4522 0001470 241.0994 118.9726 15.70757717 86154
STARLINK-11530 [DTC]    
1 62562U 25006J   26193.15727690  .00110839  00000+0  85428-3 0  9993
2 62562  43.0014 110.0300 0005617 250.4853 109.5408 15.70866500 86173
STARLINK-11536 [DTC]    
1 62563U 25006K   26192.99295744  .00013727  00000+0  11016-3 0  9995
2 62563  42.9991 110.4945 0001601 262.8165  97.2520 15.70869581 86155
STARLINK-11540 [DTC]    
1 62564U 25006L   26192.25120095  .00124801  00000+0  96051-3 0  9999
2 62564  42.9981 115.2673 0000865 316.7427  43.3372 15.70866172 86034
STARLINK-11523 [DTC]    
1 62565U 25006M   26192.12933638  .00118362  00000+0  91114-3 0  9991
2 62565  43.0021 116.0697 0002737 248.0568 112.0009 15.70882140 86012
STARLINK-11525 [DTC]    
1 62566U 25006N   26192.97184886 -.00048677  00000+0 -37874-3 0  9994
2 62566  43.0020 111.2194 0003056 254.5489 105.5041 15.70791460 86141
STARLINK-32752          
1 62567U 25006P   26193.32919876  .00010573  00000+0  39314-3 0  9993
2 62567  43.0033 308.7729 0002229 279.0824  80.9775 15.27583758 83923
STARLINK-32760          
1 62568U 25006Q   26193.33433373  .00009752  00000+0  36335-3 0  9995
2 62568  42.9979 308.7909 0000929 204.3982 155.6826 15.27587857 83923
STARLINK-32715          
1 62569U 25006R   26193.34332950  .00010296  00000+0  38298-3 0  9991
2 62569  42.9994 308.8711 0001466 261.6821  98.3864 15.27593951 83925
STARLINK-32764          
1 62570U 25006S   26192.37024514  .00010996  00000+0  40851-3 0  9994
2 62570  43.0012 314.4645 0001439 169.4332 190.6550 15.27580732 83775
STARLINK-32773          
1 62571U 25006T   26193.31120889  .00013013  00000+0  48148-3 0  9992
2 62571  43.0029 308.6291 0001079 247.5583 112.5154 15.27586692 83923
STARLINK-32750          
1 62572U 25006U   26193.29321656  .00008314  00000+0  31141-3 0  9998
2 62572  42.9996 308.4788 0002643 218.1388 141.9277 15.27566434 83923
