OBJECT_NAME,OBJECT_ID,EPOCH,MEAN_MOTION,ECCENTRICITY,INCLINATION,RA_OF_ASC_NODE,ARG_OF_PERICENTER,MEAN_ANOMALY,EPHEMERIS_TYPE,CLASSIFICATION_TYPE,NORAD_CAT_ID,ELEMENT_SET_NO,REV_AT_EPOCH,BSTAR,MEAN_MOTION_DOT,MEAN_MOTION_DDOT
STARLINK-11516 [DTC],2025-004M,2026-07-11T15:19:33.362976,15.70967618,.0002918,43.0027,43.4975,294.7907,65.2657,0,U,62522,999,8670,.11260376E-2,.147432E-2,0
STARLINK-11527 [DTC],2025-004N,2026-07-11T22:42:03.170592,15.70944982,.0003693,43.0003,41.4981,252.3305,107.7159,0,U,62523,999,8675,.1051E-2,.137294E-2,0
STARLINK-32748,2025-004P,2026-07-12T03:20:53.002176,15.27566437,.00009612,42.9965,236.8696,261.9613,98.1130,0,U,62524,999,8549,.50492983E-3,.13653E-3,0
STARLINK-32777,2025-004Q,2026-07-12T04:18:14.406624,15.27578293,.00016294,43.0024,237.1720,270.8777,89.1888,0,U,62525,999,8549,.23438075E-3,.6193E-4,0
STARLINK-32741,2025-004R,2026-07-12T04:02:17.358144,15.27585435,.00015257,43.0025,233.6247,272.6123,87.4554,0,U,62526,999,8553,.29821175E-3,.7954E-4,0
STARLINK-32754,2025-004S,2026-07-12T03:43:03.226944,15.27623452,.00010335,42.9939,236.9784,211.3541,148.7249,0,U,62527,999,8454,.54677851E-3,.14834E-3,0
STARLINK-32786,2025-004T,2026-07-12T04:29:07.539648,15.27565587,.00016602,43.0003,236.3671,253.9654,106.1015,0,U,62528,999,8455,.38990743E-3,.10478E-3,0
STARLINK-32789,2025-004U,2026-07-12T03:52:19.700832,15.27587030,.00014257,42.9971,237.0257,174.4333,185.6534,0,U,62529,999,8549,.42178732E-3,.11365E-3,0
STARLINK-32791,2025-004V,2026-07-12T03:31:58.126656,15.27559444,.00010461,42.9971,236.9211,260.0403,100.0330,0,U,62530,999,8549,.21207073E-3,.5575E-4,0
STARLINK-32785,2025-004W,2026-07-12T04:03:26.049600,15.27581723,.00009898,42.9990,237.0919,196.3364,163.7456,0,U,62531,999,8549,.22939819E-3,.6056E-4,0
STARLINK-11538 [DTC],2025-006A,2026-07-11T23:26:55.422240,15.70861637,.00025463,43.0000,110.3682,202.4599,157.6157,0,U,62554,999,8615,.72974515E-3,.9435E-3,0
STARLINK-11534 [DTC],2025-006B,2026-07-11T23:34:33.957408,15.70847875,.00027838,42.9992,110.4052,194.4009,165.6779,0,U,62555,999,8615,.53718104E-3,.69085E-3,0
STARLINK-11515 [DTC],2025-006C,2026-07-11T03:13:53.842944,15.70845941,.0001564,43.0009,116.1186,263.0566,97.0124,0,U,62556,999,8601,.80757979E-3,.104513E-2,0
STARLINK-11478 [DTC],2025-006D,2026-07-12T03:08:16.422432,15.70878777,.00030216,42.9997,109.8171,301.0818,58.9753,0,U,62557,999,8617,.11238578E-2,.146584E-2,0
STARLINK-11358 [DTC],2025-006E,2026-07-12T03:00:37.294560,15.70895442,.00035381,43.0040,109.7726,275.3742,84.6722,0,U,62558,999,8617,.84485875E-3,.109678E-2,0
STARLINK-11517 [DTC],2025-006F,2026-07-12T03:15:54.507456,15.70972982,.0004505,43.0022,109.8573,250.9960,109.0419,0,U,62559,999,8617,.14336531E-2,.188864E-2,0
STARLINK-11519 [DTC],2025-006G,2026-07-12T03:47:48.276960,15.70922640,.00032589,43.0009,110.0378,256.8694,103.1810,0,U,62560,999,8617,.8902546E-3,.115809E-2,0
STARLINK-11451 [DTC],2025-006H,2026-07-11T23:42:12.825216,15.70757717,.00014704,43.0008,110.4522,241.0994,118.9726,0,U,62561,999,8615,.11007525E-2,.142748E-2,0
STARLINK-11530 [DTC],2025-006J,2026-07-12T03:46:28.724160,15.70866500,.00056178,43.0014,110.0300,250.4853,109.5408,0,U,62562,999,8617,.85427541E-3,.110839E-2,0
STARLINK-11536 [DTC],2025-006K,2026-07-11T23:49:51.522816,15.70869581,.00016015,42.9991,110.4945,262.8165,97.2520,0,U,62563,999,8615,.11016037E-3,.13727E-3,0
STARLINK-11540 [DTC],2025-006L,2026-07-11T06:01:43.762080,15.70866172,.00008653,42.9981,115.2673,316.7427,43.3372,0,U,62564,999,8603,.96051235E-3,.124801E-2,0
STARLINK-11523 [DTC],2025-006M,2026-07-11T03:06:14.663232,15.70882140,.00027372,43.0021,116.0697,248.0568,112.0009,0,U,62565,999,8601,.91114055E-3,.118362E-2,0
STARLINK-11525 [DTC],2025-006N,2026-07-11T23:19:27.741504,15.70791460,.00030569,43.0020,111.2194,254.5489,105.5041,0,U,62566,999,8614,-.378737E-3,-.48677E-3,0
STARLINK-32752,2025-006P,2026-07-12T07:54:02.772864,15.27583758,.00022298,43.0033,308.7729,279.0824,80.9775,0,U,62567,999,8392,.39313604E-3,.10573E-3,0
STARLINK-32760,2025-006Q,2026-07-12T08:01:26.434272,15.27587857,.00009296,42.9979,308.7909,204.3982,155.6826,0,U,62568,999,8392,.36334953E-3,.9752E-4,0
STARLINK-32715,2025-006R,2026-07-12T08:14:23.668800,15.27593951,.00014665,42.9994,308.8711,261.6821,98.3864,0,U,62569,999,8392,.38297742E-3,.10296E-3,0
STARLINK-32764,2025-006S,2026-07-11T08:53:09.180096,15.27580732,.0001439,43.0012,314.4645,169.4332,190.6550,0,U,62570,999,8377,.40850933E-3,.10996E-3,0
STARLINK-32773,2025-006T,2026-07-12T07:28:08.448096,15.27586692,.00010799,43.0029,308.6291,247.5583,112.5154,0,U,62571,999,8392,.48147694E-3,.13013E-3,0
STARLINK-32750,2025-006U,2026-07-12T07:02:13.910784,15.27566434,.00026439,42.9996,308.4788,218.1388,141.9277,0,U,62572,999,8392,.31141475E-3,.8314E-4,0
